NORAD_CAT_ID,OBJECT_NAME,OBJECT_TYPE,EPOCH,MEAN_MOTION,ECCENTRICITY,INCLINATION,RA_OF_ASC_NODE,ARG_OF_PERICENTER,MEAN_ANOMALY,BSTAR,MEAN_MOTION_DOT,MEAN_MOTION_DDOT,TLE_LINE0,TLE_LINE1,TLE_LINE2,SEMIMAJOR_AXIS,PERIOD,APOGEE,PERIGEE,DECAYED
53538.0,STARLINK-4118,PAYLOAD,2023-06-08 12:19:50,15.08840228,9.41e-05,53.2158,256.5325,93.8558,266.2541,2.893e-05,1.73e-06,0.0,0 STARLINK-4118,1 53538U 22101M   23159.51378059  .00000173  00000-0  28930-4 0  9995,2 53538  53.2158 256.5325 0000941  93.8558 266.2541 15.08840228 45249,6917.88,95.438,540.396,539.094,0.0
53538.0,STARLINK-4118,PAYLOAD,2023-06-08 18:41:22,15.08846918,8.96e-05,53.2157,255.3429,92.746,267.3635,8.0832e-05,9.99e-06,0.0,0 STARLINK-4118,1 53538U 22101M   23159.77873431  .00000999  00000-0  80832-4 0  9992,2 53538  53.2157 255.3429 0000896  92.7460 267.3635 15.08846918 45281,6917.859,95.437,540.344,539.104,0.0
53538.0,STARLINK-4118,PAYLOAD,2023-06-09 05:49:05,15.08828435,6.8e-05,53.2161,253.2636,62.4033,297.7028,6.6966e-05,7.78e-06,0.0,0 STARLINK-4118,1 53538U 22101M   23160.24242766  .00000778  00000-0  66966-4 0  9994,2 53538  53.2161 253.2636 0000680  62.4033 297.7028 15.08828435 44662,6917.916,95.438,540.251,539.31,0.0
53538.0,STARLINK-4118,PAYLOAD,2023-06-09 10:35:14,15.08837659,7.31e-05,53.2158,252.3702,82.0078,278.0997,-9.9586e-07,-3.03e-06,0.0,0 STARLINK-4118,1 53538U 22101M   23160.44114423 -.00000303  00000-0 -99586-6 0  9996,2 53538  53.2158 252.3702 0000731  82.0078 278.0997 15.08837659 45381,6917.888,95.438,540.258,539.247,0.0
53538.0,STARLINK-4118,PAYLOAD,2023-06-09 13:46:00,15.08841305,8.69e-05,53.2156,251.775,81.6467,278.4623,2.435e-05,1e-06,0.0,0 STARLINK-4118,1 53538U 22101M   23160.57362131  .00000100  00000-0  24350-4 0  9999,2 53538  53.2156 251.7750 0000869  81.6467 278.4623 15.08841305 44713,6917.876,95.437,540.343,539.14,0.0
53538.0,STARLINK-4118,PAYLOAD,2023-06-10 08:50:38,15.08838322,9.38e-05,53.215,248.2069,78.7841,281.3257,7.994e-05,9.85e-06,0.0,0 STARLINK-4118,1 53538U 22101M   23161.36850270  .00000985  00000-0  79940-4 0  9999,2 53538  53.2150 248.2069 0000938  78.7841 281.3257 15.08838322 45522,6917.886,95.438,540.399,539.102,0.0
53538.0,STARLINK-4118,PAYLOAD,2023-06-10 12:01:24,15.088442,9.22e-05,53.2151,247.6121,85.2493,274.8605,3.1706e-05,2.17e-06,0.0,0 STARLINK-4118,1 53538U 22101M   23161.50098081  .00000217  00000-0  31706-4 0  9995,2 53538  53.2151 247.6121 0000922  85.2493 274.8605 15.08844200 45542,6917.868,95.437,540.37,539.095,0.0
53538.0,STARLINK-4118,PAYLOAD,2023-06-10 23:09:06,15.08846472,9.59e-05,53.215,245.5305,82.9387,277.1714,3.5411e-05,2.76e-06,0.0,0 STARLINK-4118,1 53538U 22101M   23161.96465832  .00000276  00000-0  35411-4 0  9999,2 53538  53.2150 245.5305 0000959  82.9387 277.1714 15.08846472 44929,6917.861,95.437,540.389,539.062,0.0
53538.0,STARLINK-4118,PAYLOAD,2023-06-11 08:41:25,15.08839093,0.0001027,53.2151,243.7457,105.535,254.5756,9.2031e-05,1.177e-05,0.0,0 STARLINK-4118,1 53538U 22101M   23162.36210194  .00001177  00000-0  92031-4 0  9995,2 53538  53.2151 243.7457 0001027 105.5350 254.5756 15.08839093 44989,6917.883,95.438,540.459,539.038,0.0
53538.0,STARLINK-4118,PAYLOAD,2023-06-11 11:52:11,15.08843293,0.0001052,53.2151,243.151,98.2917,261.8195,6.3003e-05,7.15e-06,0.0,0 STARLINK-4118,1 53538U 22101M   23162.49458024  .00000715  00000-0  63003-4 0  9999,2 53538  53.2151 243.1510 0001052  98.2917 261.8195 15.08843293 45692,6917.87,95.437,540.463,539.008,0.0
53538.0,STARLINK-4118,PAYLOAD,2023-06-11 22:59:53,15.08842431,9.58e-05,53.2149,241.0695,97.2209,262.8892,8.4207e-05,1.053e-05,0.0,0 STARLINK-4118,1 53538U 22101M   23162.95825962  .00001053  00000-0  84207-4 0  9994,2 53538  53.2149 241.0695 0000958  97.2209 262.8892 15.08842431 45763,6917.873,95.437,540.401,539.075,0.0
53538.0,STARLINK-4118,PAYLOAD,2023-06-12 10:07:35,15.08842519,0.0001011,53.2149,238.9873,99.553,260.5577,6.0299e-05,6.72e-06,0.0,0 STARLINK-4118,1 53538U 22101M   23163.42193988  .00000672  00000-0  60299-4 0  9994,2 53538  53.2149 238.9873 0001011  99.5530 260.5577 15.08842519 45839,6917.873,95.437,540.437,539.038,0.0
53538.0,STARLINK-4118,PAYLOAD,2023-06-12 11:42:58,15.08843988,0.0001027,53.2149,238.6898,100.0262,260.0846,7.0646e-05,8.37e-06,0.0,0 STARLINK-4118,1 53538U 22101M   23163.48817844  .00000837  00000-0  70646-4 0  9994,2 53538  53.2149 238.6898 0001027 100.0262 260.0846 15.08843988 45150,6917.868,95.437,540.444,539.023,0.0
53538.0,STARLINK-4118,PAYLOAD,2023-06-13 05:12:13,15.08832005,0.0001031,53.2146,235.419,97.2051,262.9058,-1.0288e-05,-4.51e-06,0.0,0 STARLINK-4118,1 53538U 22101M   23164.21682861 -.00000451  00000-0 -10288-4 0  9995,2 53538  53.2146 235.4190 0001031  97.2051 262.9058 15.08832005 45261,6917.905,95.438,540.483,539.057,0.0
53538.0,STARLINK-4118,PAYLOAD,2023-06-13 21:06:05,15.08836894,0.0001048,53.2147,232.4458,94.096,266.0152,-1.3509e-05,-5.03e-06,0.0,0 STARLINK-4118,1 53538U 22101M   23164.87922745 -.00000503  00000-0 -13509-4 0  9992,2 53538  53.2147 232.4458 0001048  94.0960 266.0152 15.08836894 46056,6917.89,95.438,540.48,539.03,0.0
53538.0,STARLINK-4118,PAYLOAD,2023-06-14 06:38:23,15.08840038,0.0001075,53.2148,230.6604,84.9689,275.1426,7.1936e-05,8.57e-06,0.0,0 STARLINK-4118,1 53538U 22101M   23165.27666383  .00000857  00000-0  71936-4 0  9998,2 53538  53.2148 230.6604 0001075  84.9689 275.1426 15.08840038 45426,6917.88,95.438,540.489,539.002,0.0
53538.0,STARLINK-4118,PAYLOAD,2023-06-14 20:56:52,15.08838161,0.0001092,53.2148,227.984,74.4869,285.6244,6.9346e-05,8.16e-06,0.0,0 STARLINK-4118,1 53538U 22101M   23165.87282575  .00000816  00000-0  69346-4 0  9998,2 53538  53.2148 227.9840 0001092  74.4869 285.6244 15.08838161 46205,6917.886,95.438,540.506,538.996,0.0
53538.0,STARLINK-4118,PAYLOAD,2023-06-15 09:39:58,15.08828719,0.0001071,53.2146,225.6055,85.0286,275.0828,5.386e-05,5.69e-06,0.0,0 STARLINK-4118,1 53538U 22101M   23166.40275476  .00000569  00000-0  53860-4 0  9999,2 53538  53.2146 225.6055 0001071  85.0286 275.0828 15.08828719 45594,6917.915,95.438,540.521,539.039,0.0
53538.0,STARLINK-4118,PAYLOAD,2023-06-15 22:23:02,15.08837592,0.0001091,53.2147,223.2265,80.6319,279.4797,7.0341e-05,8.32e-06,0.0,0 STARLINK-4118,1 53538U 22101M   23166.93267092  .00000832  00000-0  70341-4 0  9998,2 53538  53.2147 223.2265 0001091  80.6319 279.4797 15.08837592 45673,6917.888,95.438,540.507,538.998,0.0
53538.0,STARLINK-4118,PAYLOAD,2023-06-16 09:30:43,15.08849007,0.0001108,53.2148,221.1456,81.3,278.8118,0.00010618,1.403e-05,0.0,0 STARLINK-4118,1 53538U 22101M   23167.39634224  .00001403  00000-0  10618-3 0  9999,2 53538  53.2148 221.1456 0001108  81.3000 278.8118 15.08849007 45749,6917.853,95.437,540.484,538.951,0.0
53538.0,STARLINK-4118,PAYLOAD,2023-06-16 22:13:49,15.08840724,0.0001126,53.215,218.767,81.3599,278.7521,0.00014282,1.986e-05,0.0,0 STARLINK-4118,1 53538U 22101M   23167.92626474  .00001986  00000-0  14282-3 0  9993,2 53538  53.2150 218.7670 0001126  81.3599 278.7521 15.08840724 45828,6917.878,95.438,540.522,538.964,0.0
53538.0,STARLINK-4118,PAYLOAD,2023-06-17 09:21:31,15.08834497,0.0001145,53.215,216.6858,82.0846,278.0276,7.1543e-05,8.51e-06,0.0,0 STARLINK-4118,1 53538U 22101M   23168.38995191  .00000851  00000-0  71543-4 0  9993,2 53538  53.2150 216.6858 0001145  82.0846 278.0276 15.08834497 45894,6917.897,95.438,540.554,538.97,0.0
53538.0,STARLINK-4118,PAYLOAD,2023-06-17 20:29:13,15.08836606,0.0001103,53.2149,214.604,81.7655,278.3462,4.0998e-05,3.65e-06,0.0,0 STARLINK-4118,1 53538U 22101M   23168.85363188  .00000365  00000-0  40998-4 0  9990,2 53538  53.2149 214.6040 0001103  81.7655 278.3462 15.08836606 46650,6917.891,95.438,540.519,538.993,0.0
53538.0,STARLINK-4118,PAYLOAD,2023-06-18 09:12:18,15.08838445,0.0001155,53.215,212.2254,81.8091,278.3032,-2.6543e-05,-7.1e-06,0.0,0 STARLINK-4118,1 53538U 22101M   23169.38355279 -.00000710  00000-0 -26543-4 0  9997,2 53538  53.2150 212.2254 0001155  81.8091 278.3032 15.08838445 46730,6917.885,95.438,540.549,538.951,0.0
53538.0,STARLINK-4118,PAYLOAD,2023-06-18 20:20:00,15.08839708,0.0001114,53.2147,210.1431,83.5981,276.5138,-1.0911e-05,-4.61e-06,0.0,0 STARLINK-4118,1 53538U 22101M   23169.84723107 -.00000461  00000-0 -10911-4 0  9992,2 53538  53.2147 210.1431 0001114  83.5981 276.5138 15.08839708 46800,6917.881,95.438,540.517,538.976,0.0
53538.0,STARLINK-4118,PAYLOAD,2023-06-18 23:30:46,15.08836438,0.0001086,53.2148,209.548,84.2309,275.8807,7.3081e-05,8.75e-06,0.0,0 STARLINK-4118,1 53538U 22101M   23169.97971025  .00000875  00000-0  73081-4 0  9994,2 53538  53.2148 209.5480 0001086  84.2309 275.8807 15.08836438 46135,6917.891,95.438,540.508,539.005,0.0
53538.0,STARLINK-4118,PAYLOAD,2023-06-19 09:03:05,15.08838533,0.0001083,53.2148,207.7638,84.2108,275.9008,8.528e-05,1.07e-05,0.0,0 STARLINK-4118,1 53538U 22101M   23170.37714955  .00001070  00000-0  85280-4 0  9999,2 53538  53.2148 207.7638 0001083  84.2108 275.9008 15.08838533 46888,6917.885,95.438,540.499,539.001,0.0
53538.0,STARLINK-4118,PAYLOAD,2023-06-20 02:32:20,15.08836408,0.0001104,53.2146,204.4919,85.8018,274.31,8.5478e-05,1.073e-05,0.0,0 STARLINK-4118,1 53538U 22101M   23171.10579144  .00001073  00000-0  85478-4 0  9992,2 53538  53.2146 204.4919 0001104  85.8018 274.3100 15.08836408 46305,6917.891,95.438,540.52,538.993,0.0
53538.0,STARLINK-4118,PAYLOAD,2023-06-20 08:53:52,15.08838092,0.0001106,53.2146,203.3025,85.3041,274.8077,9.3247e-05,1.196e-05,0.0,0 STARLINK-4118,1 53538U 22101M   23171.37075062  .00001196  00000-0  93247-4 0  9990,2 53538  53.2146 203.3025 0001106  85.3041 274.8077 15.08838092 47034,6917.886,95.438,540.516,538.986,0.0
53538.0,STARLINK-4118,PAYLOAD,2023-06-21 07:09:17,15.08837878,0.0001111,53.2146,199.1394,83.7225,276.3894,2.2739e-05,7.4e-07,0.0,0 STARLINK-4118,1 53538U 22101M   23172.29811385  .00000074  00000-0  22739-4 0  9990,2 53538  53.2146 199.1394 0001111  83.7225 276.3894 15.08837878 46480,6917.887,95.438,540.52,538.983,0.0
